ORBCOMM FM115           
1 41186U 15081H   25070.55519503  .00001415  00000+0  31272-3 0  9990
2 41186  46.9978 143.8102 0001665 287.0908  72.9796 14.62186805493485
ORBCOMM FM108           
1 41187U 15081J   25070.45387805  .00001626  00000+0  38799-3 0  9993
2 41187  47.0042 208.4447 0003497 224.0208 136.0399 14.57884122492536
ORBCOMM FM117           
1 41188U 15081K   25070.35160257  .00001459  00000+0  35189-3 0  9997
2 41188  47.0004 207.7223 0003932 230.3165 129.7374 14.57881842492566
ORBCOMM FM116           
1 41189U 15081L   25070.61659811  .00001452  00000+0  35035-3 0  9999
2 41189  47.0022 296.3347 0001678 308.3429  51.7306 14.57876643491417
