<?xml version="1.0" encoding="UTF-8"?>
<ndm xmlns:xsi="http://www.w3.org/2001/XMLSchema-instance" xsi:noNamespaceSchemaLocation="https://sanaregistry.org/r/ndmxml_unqualified/ndmxml-2.0.0-master-2.0.xsd">
<omm id="CCSDS_OMM_VERS" version="2.0">
<header><CREATION_DATE/><ORIGINATOR/></header><body><segment><metadata><OBJECT_NAME>ORBCOMM FM115</OBJECT_NAME><OBJECT_ID>2015-081H</OBJECT_ID><CENTER_NAME>EARTH</CENTER_NAME><REF_FRAME>TEME</REF_FRAME><TIME_SYSTEM>UTC</TIME_SYSTEM><MEAN_ELEMENT_THEORY>SGP4</MEAN_ELEMENT_THEORY></metadata><data><meanElements><EPOCH>2025-03-11T13:19:28.850592</EPOCH><MEAN_MOTION>14.62186805</MEAN_MOTION><ECCENTRICITY>.0001665</ECCENTRICITY><INCLINATION>46.9978</INCLINATION><RA_OF_ASC_NODE>143.8102</RA_OF_ASC_NODE><ARG_OF_PERICENTER>287.0908</ARG_OF_PERICENTER><MEAN_ANOMALY>72.9796</MEAN_ANOMALY></meanElements><tleParameters><EPHEMERIS_TYPE>0</EPHEMERIS_TYPE><CLASSIFICATION_TYPE>U</CLASSIFICATION_TYPE><NORAD_CAT_ID>41186</NORAD_CAT_ID><ELEMENT_SET_NO>999</ELEMENT_SET_NO><REV_AT_EPOCH>49348</REV_AT_EPOCH><BSTAR>.31272E-3</BSTAR><MEAN_MOTION_DOT>.1415E-4</MEAN_MOTION_DOT><MEAN_MOTION_DDOT>0</MEAN_MOTION_DDOT></tleParameters></data></segment></body></omm>
<omm id="CCSDS_OMM_VERS" version="2.0">
<header><CREATION_DATE/><ORIGINATOR/></header><body><segment><metadata><OBJECT_NAME>ORBCOMM FM108</OBJECT_NAME><OBJECT_ID>2015-081J</OBJECT_ID><CENTER_NAME>EARTH</CENTER_NAME><REF_FRAME>TEME</REF_FRAME><TIME_SYSTEM>UTC</TIME_SYSTEM><MEAN_ELEMENT_THEORY>SGP4</MEAN_ELEMENT_THEORY></metadata><data><meanElements><EPOCH>2025-03-11T10:53:35.063520</EPOCH><MEAN_MOTION>14.57884122</MEAN_MOTION><ECCENTRICITY>.0003497</ECCENTRICITY><INCLINATION>47.0042</INCLINATION><RA_OF_ASC_NODE>208.4447</RA_OF_ASC_NODE><ARG_OF_PERICENTER>224.0208</ARG_OF_PERICENTER><MEAN_ANOMALY>136.0399</MEAN_ANOMALY></meanElements><tleParameters><EPHEMERIS_TYPE>0</EPHEMERIS_TYPE><CLASSIFICATION_TYPE>U</CLASSIFICATION_TYPE><NORAD_CAT_ID>41187</NORAD_CAT_ID><ELEMENT_SET_NO>999</ELEMENT_SET_NO><REV_AT_EPOCH>49253</REV_AT_EPOCH><BSTAR>.38799E-3</BSTAR><MEAN_MOTION_DOT>.1626E-4</MEAN_MOTION_DOT><MEAN_MOTION_DDOT>0</MEAN_MOTION_DDOT></tleParameters></data></segment></body></omm>
<omm id="CCSDS_OMM_VERS" version="2.0">
<header><CREATION_DATE/><ORIGINATOR/></header><body><segment><metadata><OBJECT_NAME>ORBCOMM FM117</OBJECT_NAME><OBJECT_ID>2015-081K</OBJECT_ID><CENTER_NAME>EARTH</CENTER_NAME><REF_FRAME>TEME</REF_FRAME><TIME_SYSTEM>UTC</TIME_SYSTEM><MEAN_ELEMENT_THEORY>SGP4</MEAN_ELEMENT_THEORY></metadata><data><meanElements><EPOCH>2025-03-11T08:26:18.462048</EPOCH><MEAN_MOTION>14.57881842</MEAN_MOTION><ECCENTRICITY>.0003932</ECCENTRICITY><INCLINATION>47.0004</INCLINATION><RA_OF_ASC_NODE>207.7223</RA_OF_ASC_NODE><ARG_OF_PERICENTER>230.3165</ARG_OF_PERICENTER><MEAN_ANOMALY>129.7374</MEAN_ANOMALY></meanElements><tleParameters><EPHEMERIS_TYPE>0</EPHEMERIS_TYPE><CLASSIFICATION_TYPE>U</CLASSIFICATION_TYPE><NORAD_CAT_ID>41188</NORAD_CAT_ID><ELEMENT_SET_NO>999</ELEMENT_SET_NO><REV_AT_EPOCH>49256</REV_AT_EPOCH><BSTAR>.35189E-3</BSTAR><MEAN_MOTION_DOT>.1459E-4</MEAN_MOTION_DOT><MEAN_MOTION_DDOT>0</MEAN_MOTION_DDOT></tleParameters></data></segment></body></omm>
<omm id="CCSDS_OMM_VERS" version="2.0">
<header><CREATION_DATE/><ORIGINATOR/></header><body><segment><metadata><OBJECT_NAME>ORBCOMM FM116</OBJECT_NAME><OBJECT_ID>2015-081L</OBJECT_ID><CENTER_NAME>EARTH</CENTER_NAME><REF_FRAME>TEME</REF_FRAME><TIME_SYSTEM>UTC</TIME_SYSTEM><MEAN_ELEMENT_THEORY>SGP4</MEAN_ELEMENT_THEORY></metadata><data><meanElements><EPOCH>2025-03-11T14:47:54.076704</EPOCH><MEAN_MOTION>14.57876643</MEAN_MOTION><ECCENTRICITY>.0001678</ECCENTRICITY><INCLINATION>47.0022</INCLINATION><RA_OF_ASC_NODE>296.3347</RA_OF_ASC_NODE><ARG_OF_PERICENTER>308.3429</ARG_OF_PERICENTER><MEAN_ANOMALY>51.7306</MEAN_ANOMALY></meanElements><tleParameters><EPHEMERIS_TYPE>0</EPHEMERIS_TYPE><CLASSIFICATION_TYPE>U</CLASSIFICATION_TYPE><NORAD_CAT_ID>41189</NORAD_CAT_ID><ELEMENT_SET_NO>999</ELEMENT_SET_NO><REV_AT_EPOCH>49141</REV_AT_EPOCH><BSTAR>.35035E-3</BSTAR><MEAN_MOTION_DOT>.1452E-4</MEAN_MOTION_DOT><MEAN_MOTION_DDOT>0</MEAN_MOTION_DDOT></tleParameters></data></segment></body></omm>
</ndm>
